[
    {
        "CCSDS_OMM_VERS": "3.0",
        "COMMENT": "GENERATED VIA SPACE-TRACK.ORG API",
        "CREATION_DATE": "2025-03-02T22:56:18",
        "ORIGINATOR": "18 SPCS",
        "OBJECT_NAME": "BEIDOU 10",
        "OBJECT_ID": "2011-073A",
        "CENTER_NAME": "EARTH",
        "REF_FRAME": "TEME",
        "TIME_SYSTEM": "UTC",
        "MEAN_ELEMENT_THEORY": "SGP4",
        "EPOCH": "2025-03-02T13:38:51.717696",
        "MEAN_MOTION": "1.00272788",
        "ECCENTRICITY": "0.01009300",
        "INCLINATION": "48.5370",
        "RA_OF_ASC_NODE": "277.3538",
        "ARG_OF_PERICENTER": "219.6795",
        "MEAN_ANOMALY": "324.6537",
        "EPHEMERIS_TYPE": "0",
        "CLASSIFICATION_TYPE": "U",
        "NORAD_CAT_ID": "37948",
        "ELEMENT_SET_NO": "999",
        "REV_AT_EPOCH": "4867",
        "BSTAR": "0.00000000000000",
        "MEAN_MOTION_DOT": "-0.00000117",
        "MEAN_MOTION_DDOT": "0.0000000000000",
        "SEMIMAJOR_AXIS": "42164.451",
        "PERIOD": "1436.083",
        "APOAPSIS": "36211.882",
        "PERIAPSIS": "35360.750",
        "OBJECT_TYPE": "PAYLOAD",
        "RCS_SIZE": "LARGE",
        "COUNTRY_CODE": "PRC",
        "LAUNCH_DATE": "2011-12-01",
        "SITE": "XSC",
        "DECAY_DATE": null,
        "FILE": "4657373",
        "GP_ID": "282105525",
        "TLE_LINE0": "0 BEIDOU 10",
        "TLE_LINE1": "1 37948U 11073A   25061.56865414 -.00000117  00000-0  00000+0 0  9995",
        "TLE_LINE2": "2 37948  48.5370 277.3538 0100930 219.6795 324.6537  1.00272788 48677"
    }
]